CONNECTA IOT-3          
1 60475U 24149H   24252.91186187  .00013073  00000+0  65267-3 0  9990
2 60475  97.4358 328.0821 0004480  31.4007 328.7494 15.17610240  3507
QUBE                    
1 60476U 24149J   24253.17271341  .00027544  00000+0  13517-2 0  9995
2 60476  97.4423 328.3655 0003459  33.5656 326.5796 15.18054237  3541
SATORO-T2               
1 60477U 24149K   24253.16912114  .00031949  00000+0  15461-2 0  9999
2 60477  97.4386 328.3586 0002688  33.1991 326.9412 15.18511748  3548
WREN-1                  
1 60478U 24149L   24252.90778175  .00029029  00000+0  14186-2 0  9997
2 60478  97.4399 328.1012 0007448  41.3421 318.8375 15.18171311  3505
2024-149M               
1 60479U 24149M   24252.90963167  .00019068  00000+0  94334-3 0  9991
2 60479  97.4374 328.0906 0003701  46.2253 313.9287 15.17848893  3508
FLOCK 4BE-18            
1 60480U 24149N   24253.17223960  .00021059  00000+0  10365-2 0  9997
2 60480  97.4389 328.3540 0006212  34.4469 325.7167 15.17997024  3544
FLOCK 4BE-7             
1 60481U 24149P   24252.90790891  .00022147  00000+0  10888-2 0  9999
2 60481  97.4419 328.1071 0004997  36.2069 323.9502 15.18031929  3503
FLOCK 4BE-4             
1 60482U 24149Q   24252.90734365  .00015561  00000+0  76752-3 0  9999
2 60482  97.4418 328.1063 0004383  41.2766 318.8799 15.17996405  3502
FLOCK 4BE-16            
1 60483U 24149R   24252.90779424  .00022722  00000+0  11164-2 0  9997
2 60483  97.4403 328.1014 0004609  37.9347 322.2211 15.18049301  3504
FLOCK 4BE-26            
1 60484U 24149S   24252.90627852  .00020794  00000+0  10183-2 0  9992
2 60484  97.4371 328.0924 0005536  37.3177 322.8440 15.18178920  3503
2024-149T               
1 60485U 24149T   24252.90806498  .00022527  00000+0  11093-2 0  9995
2 60485  97.4434 328.1105 0003963  48.3025 311.8547 15.17975514  3501
FLOCK 4BE-36            
1 60486U 24149U   24252.90660421  .00023614  00000+0  11570-2 0  9998
2 60486  97.4381 328.0937 0006873  43.1196 317.0575 15.18127794  3509
FLOCK 4BE-25            
1 60487U 24149V   24252.90493322  .00020072  00000+0  98187-3 0  9998
2 60487  97.4433 328.1148 0004335  42.5894 317.5675 15.18230051  3509
FLOCK 4BE-31            
1 60488U 24149W   24252.90523865  .00023772  00000+0  11607-2 0  9996
2 60488  97.4432 328.1154 0005019  43.3837 316.7791 15.18256674  3501
FLOCK 4BE-20            
1 60489U 24149X   24252.90386716  .00019186  00000+0  93636-3 0  9996
2 60489  97.4363 328.0920 0005855  42.5230 317.6457 15.18313959  3500
FLOCK 4BE-23            
1 60490U 24149Y   24252.90546006  .00019137  00000+0  93824-3 0  9993
2 60490  97.4425 328.1137 0005474  43.3769 316.7895 15.18156609  3508
FLOCK 4BE-15            
1 60491U 24149Z   24253.16867354  .00022837  00000+0  11164-2 0  9992
2 60491  97.4357 328.3489 0005996  43.7726 316.3982 15.18219017  3541
FLOCK 4BE-17            
1 60492U 24149AA  24252.90480119  .00019844  00000+0  97156-3 0  9994
2 60492  97.4437 328.1178 0004861  46.9275 313.2365 15.18200501  3503
2024-149AB              
1 60493U 24149AB  24252.90424316  .00022646  00000+0  11054-2 0  9998
2 60493  97.4416 328.1126 0005709  48.1003 312.0717 15.18273962  3508
FLOCK 4BE-22            
1 60494U 24149AC  24252.90403343  .00021904  00000+0  10692-2 0  9999
2 60494  97.4376 328.0940 0006923  51.1899 308.9953 15.18274318  3505
FLOCK 4BE-34            
1 60495U 24149AD  24252.90302452  .00019601  00000+0  95658-3 0  9996
2 60495  97.4423 328.1171 0005276  48.2917 311.8768 15.18313455  3507
TYCHE                   
1 60496U 24149AE  24252.90456692  .00013766  00000+0  67745-3 0  9995
2 60496  97.4409 328.1083 0006118  55.5694 304.6117 15.18094899  3509
FLOCK 4BE-32            
1 60497U 24149AF  24252.90072659  .00021220  00000+0  10284-2 0  9992
2 60497  97.4361 328.0945 0006313  50.2996 309.8794 15.18534299  3508
2024-149AG              
1 60498U 24149AG  24252.90272941  .00022374  00000+0  10889-2 0  9991
2 60498  97.4386 328.0990 0006737  55.8026 304.3845 15.18374454  3503
FLOCK 4BE-30            
1 60499U 24149AH  24252.90172523  .00022597  00000+0  10978-2 0  9993
2 60499  97.4436 328.1225 0005044  53.4991 306.6707 15.18443194  2887
2024-149AJ              
1 60500U 24149AJ  24252.90216832  .00022230  00000+0  10812-2 0  9999
2 60500  97.4411 328.1147 0005580  53.3458 306.8289 15.18404010  3509
FLOCK 4BE-11            
1 60501U 24149AK  24252.90121389  .00021845  00000+0  10596-2 0  9992
2 60501  97.4365 328.0943 0006738  57.0438 303.1443 15.18495311  3502
FLOCK 4BE-33            
1 60502U 24149AL  24252.89967920  .00019782  00000+0  95916-3 0  9997
2 60502  97.4380 328.0997 0006631  61.9230 298.2674 15.18529936  3506
FLOCK 4BE-10            
1 60503U 24149AM  24252.90000449  .00019921  00000+0  96694-3 0  9993
2 60503  97.4431 328.1237 0004903  61.3101 298.8626 15.18500698  3500
2024-149AN              
1 60504U 24149AN  24252.90011228  .00016883  00000+0  82152-3 0  9999
2 60504  97.4415 328.1167 0005510  64.5286 295.6518 15.18446854  3507
FLOCK 4BE-24            
1 60505U 24149AP  24252.89702028  .00022772  00000+0  10958-2 0  9991
2 60505  97.4364 328.0994 0006736  63.0247 297.1675 15.18764429  3502
2024-149AQ              
1 60506U 24149AQ  24252.89922132  .00016271  00000+0  79093-3 0  9995
2 60506  97.4398 328.1088 0006212  69.2008 290.9891 15.18487083  3506
TANAGER-1               
1 60507U 24149AR  24253.16189347  .00024160  00000+0  11655-2 0  9995
2 60507  97.4398 328.3697 0005875  66.7378 293.4474 15.18669617  3545
EAGLEEYE                
1 60508U 24149AS  24252.89557493  .00029835  00000+0  14236-2 0  9998
2 60508  97.4384 328.1080 0006150  66.9570 293.2312 15.19003908  3509
FLOCK 4BE-29            
1 60509U 24149AT  24252.89623951  .00023034  00000+0  11056-2 0  9994
2 60509  97.4438 328.1301 0005232  69.7818 290.3979 15.18858450  3508
2024-149AU              
1 60510U 24149AU  24252.89644646  .00022425  00000+0  10785-2 0  9991
2 60510  97.4377 328.1037 0006638  71.4314 288.7641 15.18787071  3507
FLOCK 4BE-2             
1 60511U 24149AV  24252.89355111  .00020819  00000+0  99357-3 0  9996
2 60511  97.4443 328.1334 0005315  73.3971 286.7846 15.19078885  3505
FLOCK 4BE-13            
1 60512U 24149AW  24252.89532157  .00021001  00000+0  10086-2 0  9999
2 60512  97.4356 328.1015 0007182  64.3667 295.8308 15.18846676  3505
FLOCK 4BE-27            
1 60513U 24149AX  24252.89399736  .00017749  00000+0  85292-3 0  9990
2 60513  97.4439 328.1305 0006646  77.9332 282.2647 15.18864394  3506
FLOCK 4BE-9             
1 60514U 24149AY  24252.89309988  .00021529  00000+0  10296-2 0  9993
2 60514  97.4423 328.1283 0005460  80.2544 279.9307 15.18998362  3509
FLOCK 4BE-8             
1 60515U 24149AZ  24252.89318306  .00019560  00000+0  93612-3 0  9994
2 60515  97.4371 328.1075 0007117  73.4459 286.7557 15.18982528  3501
FLOCK 4BE-6             
1 60516U 24149BA  24252.89227719  .00020414  00000+0  97580-3 0  9990
2 60516  97.4428 328.1302 0005984  80.9009 279.2903 15.19023480  3508
FLOCK 4BE-14            
1 60517U 24149BB  24252.88963323  .00018560  00000+0  88050-3 0  9999
2 60517  97.4377 328.1154 0007546  73.3096 286.8967 15.19295939  3509
FLOCK 4BE-1             
1 60518U 24149BC  24252.89045486  .00022522  00000+0  10696-2 0  9995
2 60518  97.4421 328.1296 0006770  78.8351 281.3645 15.19223835  3508
FLOCK 4BE-28            
1 60519U 24149BD  24252.89132761  .00024707  00000+0  11741-2 0  9998
2 60519  97.4387 328.1171 0008018  73.3102 286.9012 15.19173927  3508
IPERDRONE.0             
1 60520U 24149BE  24252.88841483  .00031231  00000+0  14680-2 0  9992
2 60520  97.4394 328.1229 0007858  70.7543 289.4541 15.19504463  3501
2024-149BF              
1 60521U 24149BF  24253.21592332  .00037265  00000+0  17373-2 0  9992
2 60521  97.4414 328.4558 0007766  71.7384 288.4696 15.19748084  3559
CONNECTA IOT-2          
1 60522U 24149BG  24252.88888506  .00014824  00000+0  70688-3 0  9991
2 60522  97.4435 328.1341 0008801  77.1708 283.0510 15.19159688  3508
2024-149BH              
1 60523U 24149BH  24252.88417819  .00036832  00000+0  17096-2 0  9993
2 60523  97.4368 328.1204 0008518  69.6221 290.5928 15.19897775  3505
CONNECTA IOT-4          
1 60524U 24149BJ  24252.88819401  .00013870  00000+0  66077-3 0  9998
2 60524  97.4397 328.1239 0009467  72.8431 287.3839 15.19200243  3502
2024-149BK              
1 60525U 24149BK  24252.88523686  .00024721  00000+0  11604-2 0  9998
2 60525  97.4355 328.1160 0009840  67.1677 293.0596 15.19585553  3508
DEIMOS                  
1 60526U 24149BL  24252.88457243  .00024621  00000+0  11546-2 0  9998
2 60526  97.4417 328.1343 0009841  72.3130 287.9179 15.19620537  3505
CUAVA 2                 
1 60527U 24149BM  24252.88438305  .00021999  00000+0  10323-2 0  9994
2 60527  97.4364 328.1205 0010126  66.1956 294.0339 15.19618698  3501
ERNST                   
1 60528U 24149BN  24252.88634635  .00015042  00000+0  71357-3 0  9996
2 60528  97.4426 328.1344 0010310  73.8505 286.3864 15.19323215  3500
GAINDESAT-1A            
1 60529U 24149BP  24252.87951874  .00040612  00000+0  18633-2 0  9991
2 60529  97.4439 328.1462 0009573  69.5334 290.6928 15.20265928  3504
TORO                    
1 60530U 24149BQ  24252.91190515  .00008051  00000+0  81106-3 0  9992
2 60530  97.7456 327.9856 0001383  85.3895 274.7482 14.91408582  3433
2024-149BR              
1 60531U 24149BR  24252.91130021  .00011191  00000+0  11219-2 0  9995
2 60531  97.7452 327.9852 0001186  73.3782 286.7567 14.91509370  3433
2024-149BS              
1 60532U 24149BS  24252.90952052  .00010156  00000+0  10165-2 0  9990
2 60532  97.7479 327.9951 0001866  80.5950 279.5480 14.91599592  3434
